[{"OBJECT_NAME":"STARLINK-2629","OBJECT_ID":"2021-044BA","EPOCH":"2026-03-09T23:39:19.239840","MEAN_MOTION":15.29350904,"ECCENTRICITY":0.00017417,"INCLINATION":53.1561,"RA_OF_ASC_NODE":73.734,"ARG_OF_PERICENTER":119.9773,"MEAN_ANOMALY":240.14,"EPHEMERIS_TYPE":0,"CLASSIFICATION_TYPE":"U","NORAD_CAT_ID":48686,"ELEMENT_SET_NO":999,"REV_AT_EPOCH":26440,"BSTAR":0.00012458907,"MEAN_MOTION_DOT":3.24e-5,"MEAN_MOTION_DDOT":0},{"OBJECT_NAME":"GEOSCAN 5 (RS92S5)","OBJECT_ID":"2025-155R","EPOCH":"2026-03-09T22:01:07.273920","MEAN_MOTION":15.30265233,"ECCENTRICITY":0.00070849,"INCLINATION":97.4462,"RA_OF_ASC_NODE":37.7456,"ARG_OF_PERICENTER":154.5846,"MEAN_ANOMALY":205.5745,"EPHEMERIS_TYPE":0,"CLASSIFICATION_TYPE":"U","NORAD_CAT_ID":64891,"ELEMENT_SET_NO":999,"REV_AT_EPOCH":6562,"BSTAR":0.00068639307,"MEAN_MOTION_DOT":0.00020065,"MEAN_MOTION_DDOT":0}]
